ISS (ZARYA)             
1 25544U 98067A   26258.36891387  .00005779  00000+0  11250-3 0  9997
2 25544  51.6311 213.7631 0004926 142.7188 217.4143 15.49122235585738
CSS (TIANHE)            
1 48274U 21035A   26258.60897388  .00017965  00000+0  21983-3 0  9991
2 48274  41.4673 133.0148 0002634 281.8410  78.2133 15.59963769307285
HST                     
1 20580U 90037B   26258.47693246  .00005739  00000+0  17495-3 0  9990
2 20580  28.4731 183.0398 0001931  70.9900 289.0905 15.31655376802424
